SL-16 R/B               
1 22566U 93016B   26031.95705282  .00000196  00000+0  12515-3 0  9992
2 22566  71.0084 292.3343 0009749   6.4069 353.7177 14.15302614696970
COSMOS 2242             
1 22626U 93024A   26031.99357655  .00001962  00000+0  17044-3 0  9993
2 22626  82.5208 301.8109 0018043  70.3205 289.9961 14.96385390774909
SL-16 R/B               
1 22803U 93059B   26031.84517828  .00000096  00000+0  71484-4 0  9998
2 22803  70.9895  88.8282 0019517 266.7261  93.1629 14.17223440674313
ARIANE 40 R/B           
1 22830U 93061H   26031.75800549  .00000268  00000+0  11411-3 0  9990
2 22830  98.4995 101.3600 0011258  38.8723 321.3269 14.32840168688814
COSMOS 2278             
1 23087U 94023A   26031.96261278 -.00000201  00000+0 -80627-4 0  9992
2 23087  71.0514 251.9378 0006314  82.6994 277.4846 14.14365831639616
SL-16 R/B               
1 23088U 94023B   26031.67228674 -.00000241  00000+0 -99665-4 0  9990
2 23088  71.0001 148.6277 0004396 319.6183  40.4613 14.15004833640850
SL-16 R/B               
1 23343U 94074B   26031.93771118  .00000538  00000+0  78817-4 0  9998
2 23343  97.7154  64.2364 0006278 354.1110 101.4626 14.79361371681819
SL-16 R/B               
1 23405U 94077B   26031.80968620 -.00000212  00000+0 -83684-4 0  9991
2 23405  70.9818  70.0791 0004643 245.3866 114.6774 14.15557246611013
ARIANE 40+ R/B          
1 23561U 95021B   26031.78460234  .00000366  00000+0  13086-3 0  9995
2 23561  98.4572 103.7531 0005741 248.3490 220.9915 14.39743562613935
SL-16 R/B               
1 23705U 95058B   26031.88553291  .00000086  00000+0  68364-4 0  9991
2 23705  71.0191 257.5253 0012762 185.6142 174.4841 14.15488135562644
SL-16 R/B               
1 24298U 96051B   26031.91389075  .00000068  00000+0  63447-4 0  9991
2 24298  70.7567 253.0815 0018097 198.9143 161.1306 14.12405022516453
ORBVIEW 2 (SEASTAR)     
1 24883U 97037A   26031.89362557  .00000334  00000+0  13238-3 0  9997
2 24883  98.8504 195.2438 0002641 148.1915 211.9430 14.35464528503195
