CCSDS_OMM_VERS = 2.0
CREATION_DATE  = 
ORIGINATOR     = 

OBJECT_NAME    = SL-16 R/B
OBJECT_ID      = 1993-016B
CENTER_NAME    = EARTH
REF_FRAME      = TEME
TIME_SYSTEM    = UTC
MEAN_ELEMENT_THEORY = SGP/SGP4

EPOCH          = 2026-01-31T22:58:09.363648
MEAN_MOTION    = 14.15302614
ECCENTRICITY   = .00097497
INCLINATION    = 71.0084
RA_OF_ASC_NODE = 292.3343
ARG_OF_PERICENTER = 6.4069
MEAN_ANOMALY   = 353.7177

EPHEMERIS_TYPE = 0
CLASSIFICATION_TYPE = U
NORAD_CAT_ID   = 22566
ELEMENT_SET_NO = 999
REV_AT_EPOCH   = 69697
BSTAR          = .12515088E-3
MEAN_MOTION_DOT = .196E-5
MEAN_MOTION_DDOT = 0

CCSDS_OMM_VERS = 2.0
CREATION_DATE  = 
ORIGINATOR     = 

OBJECT_NAME    = COSMOS 2242
OBJECT_ID      = 1993-024A
CENTER_NAME    = EARTH
REF_FRAME      = TEME
TIME_SYSTEM    = UTC
MEAN_ELEMENT_THEORY = SGP/SGP4

EPOCH          = 2026-01-31T23:50:45.013920
MEAN_MOTION    = 14.96385390
ECCENTRICITY   = .00180439
INCLINATION    = 82.5208
RA_OF_ASC_NODE = 301.8109
ARG_OF_PERICENTER = 70.3205
MEAN_ANOMALY   = 289.9961

EPHEMERIS_TYPE = 0
CLASSIFICATION_TYPE = U
NORAD_CAT_ID   = 22626
ELEMENT_SET_NO = 999
REV_AT_EPOCH   = 77490
BSTAR          = .1704407E-3
MEAN_MOTION_DOT = .1962E-4
MEAN_MOTION_DDOT = 0

CCSDS_OMM_VERS = 2.0
CREATION_DATE  = 
ORIGINATOR     = 

OBJECT_NAME    = SL-16 R/B
OBJECT_ID      = 1993-059B
CENTER_NAME    = EARTH
REF_FRAME      = TEME
TIME_SYSTEM    = UTC
MEAN_ELEMENT_THEORY = SGP/SGP4

EPOCH          = 2026-01-31T20:17:03.403392
MEAN_MOTION    = 14.17223440
ECCENTRICITY   = .00195172
INCLINATION    = 70.9895
RA_OF_ASC_NODE = 88.8282
ARG_OF_PERICENTER = 266.7261
MEAN_ANOMALY   = 93.1629

EPHEMERIS_TYPE = 0
CLASSIFICATION_TYPE = U
NORAD_CAT_ID   = 22803
ELEMENT_SET_NO = 999
REV_AT_EPOCH   = 67431
BSTAR          = .71483971E-4
MEAN_MOTION_DOT = .96E-6
MEAN_MOTION_DDOT = 0

CCSDS_OMM_VERS = 2.0
CREATION_DATE  = 
ORIGINATOR     = 

OBJECT_NAME    = ARIANE 40 R/B
OBJECT_ID      = 1993-061H
CENTER_NAME    = EARTH
REF_FRAME      = TEME
TIME_SYSTEM    = UTC
MEAN_ELEMENT_THEORY = SGP/SGP4

EPOCH          = 2026-01-31T18:11:31.674336
MEAN_MOTION    = 14.32840168
ECCENTRICITY   = .00112585
INCLINATION    = 98.4995
RA_OF_ASC_NODE = 101.3600
ARG_OF_PERICENTER = 38.8723
MEAN_ANOMALY   = 321.3269

EPHEMERIS_TYPE = 0
CLASSIFICATION_TYPE = U
NORAD_CAT_ID   = 22830
ELEMENT_SET_NO = 999
REV_AT_EPOCH   = 68881
BSTAR          = .11410713E-3
MEAN_MOTION_DOT = .268E-5
MEAN_MOTION_DDOT = 0

CCSDS_OMM_VERS = 2.0
CREATION_DATE  = 
ORIGINATOR     = 

OBJECT_NAME    = COSMOS 2278
OBJECT_ID      = 1994-023A
CENTER_NAME    = EARTH
REF_FRAME      = TEME
TIME_SYSTEM    = UTC
MEAN_ELEMENT_THEORY = SGP/SGP4

EPOCH          = 2026-01-31T23:06:09.744192
MEAN_MOTION    = 14.14365831
ECCENTRICITY   = .00063141
INCLINATION    = 71.0514
RA_OF_ASC_NODE = 251.9378
ARG_OF_PERICENTER = 82.6994
MEAN_ANOMALY   = 277.4846

EPHEMERIS_TYPE = 0
CLASSIFICATION_TYPE = U
NORAD_CAT_ID   = 23087
ELEMENT_SET_NO = 999
REV_AT_EPOCH   = 63961
BSTAR          = -.80627117E-4
MEAN_MOTION_DOT = -.201E-5
MEAN_MOTION_DDOT = 0

CCSDS_OMM_VERS = 2.0
CREATION_DATE  = 
ORIGINATOR     = 

OBJECT_NAME    = SL-16 R/B
OBJECT_ID      = 1994-023B
CENTER_NAME    = EARTH
REF_FRAME      = TEME
TIME_SYSTEM    = UTC
MEAN_ELEMENT_THEORY = SGP/SGP4

EPOCH          = 2026-01-31T16:08:05.574336
MEAN_MOTION    = 14.15004833
ECCENTRICITY   = .00043961
INCLINATION    = 71.0001
RA_OF_ASC_NODE = 148.6277
ARG_OF_PERICENTER = 319.6183
MEAN_ANOMALY   = 40.4613

EPHEMERIS_TYPE = 0
CLASSIFICATION_TYPE = U
NORAD_CAT_ID   = 23088
ELEMENT_SET_NO = 999
REV_AT_EPOCH   = 64085
BSTAR          = -.99664717E-4
MEAN_MOTION_DOT = -.241E-5
MEAN_MOTION_DDOT = 0

CCSDS_OMM_VERS = 2.0
CREATION_DATE  = 
ORIGINATOR     = 

OBJECT_NAME    = SL-16 R/B
OBJECT_ID      = 1994-074B
CENTER_NAME    = EARTH
REF_FRAME      = TEME
TIME_SYSTEM    = UTC
MEAN_ELEMENT_THEORY = SGP/SGP4

EPOCH          = 2026-01-31T22:30:18.245952
MEAN_MOTION    = 14.79361371
ECCENTRICITY   = .00062787
INCLINATION    = 97.7154
RA_OF_ASC_NODE = 64.2364
ARG_OF_PERICENTER = 354.1110
MEAN_ANOMALY   = 101.4626

EPHEMERIS_TYPE = 0
CLASSIFICATION_TYPE = U
NORAD_CAT_ID   = 23343
ELEMENT_SET_NO = 999
REV_AT_EPOCH   = 68181
BSTAR          = .78816605E-4
MEAN_MOTION_DOT = .538E-5
MEAN_MOTION_DDOT = 0

CCSDS_OMM_VERS = 2.0
CREATION_DATE  = 
ORIGINATOR     = 

OBJECT_NAME    = SL-16 R/B
OBJECT_ID      = 1994-077B
CENTER_NAME    = EARTH
REF_FRAME      = TEME
TIME_SYSTEM    = UTC
MEAN_ELEMENT_THEORY = SGP/SGP4

EPOCH          = 2026-01-31T19:25:56.887680
MEAN_MOTION    = 14.15557246
ECCENTRICITY   = .00046435
INCLINATION    = 70.9818
RA_OF_ASC_NODE = 70.0791
ARG_OF_PERICENTER = 245.3866
MEAN_ANOMALY   = 114.6774

EPHEMERIS_TYPE = 0
CLASSIFICATION_TYPE = U
NORAD_CAT_ID   = 23405
ELEMENT_SET_NO = 999
REV_AT_EPOCH   = 61101
BSTAR          = -.83683555E-4
MEAN_MOTION_DOT = -.212E-5
MEAN_MOTION_DDOT = 0

CCSDS_OMM_VERS = 2.0
CREATION_DATE  = 
ORIGINATOR     = 

OBJECT_NAME    = ARIANE 40+ R/B
OBJECT_ID      = 1995-021B
CENTER_NAME    = EARTH
REF_FRAME      = TEME
TIME_SYSTEM    = UTC
MEAN_ELEMENT_THEORY = SGP/SGP4

EPOCH          = 2026-01-31T18:49:49.642176
MEAN_MOTION    = 14.39743562
ECCENTRICITY   = .00057412
INCLINATION    = 98.4572
RA_OF_ASC_NODE = 103.7531
ARG_OF_PERICENTER = 248.3490
MEAN_ANOMALY   = 220.9915

EPHEMERIS_TYPE = 0
CLASSIFICATION_TYPE = U
NORAD_CAT_ID   = 23561
ELEMENT_SET_NO = 999
REV_AT_EPOCH   = 61393
BSTAR          = .13085573E-3
MEAN_MOTION_DOT = .366E-5
MEAN_MOTION_DDOT = 0

CCSDS_OMM_VERS = 2.0
CREATION_DATE  = 
ORIGINATOR     = 

OBJECT_NAME    = SL-16 R/B
OBJECT_ID      = 1995-058B
CENTER_NAME    = EARTH
REF_FRAME      = TEME
TIME_SYSTEM    = UTC
MEAN_ELEMENT_THEORY = SGP/SGP4

EPOCH          = 2026-01-31T21:15:10.043424
MEAN_MOTION    = 14.15488135
ECCENTRICITY   = .00127626
INCLINATION    = 71.0191
RA_OF_ASC_NODE = 257.5253
ARG_OF_PERICENTER = 185.6142
MEAN_ANOMALY   = 174.4841

EPHEMERIS_TYPE = 0
CLASSIFICATION_TYPE = U
NORAD_CAT_ID   = 23705
ELEMENT_SET_NO = 999
REV_AT_EPOCH   = 56264
BSTAR          = .68363695E-4
MEAN_MOTION_DOT = .86E-6
MEAN_MOTION_DDOT = 0

CCSDS_OMM_VERS = 2.0
CREATION_DATE  = 
ORIGINATOR     = 

OBJECT_NAME    = SL-16 R/B
OBJECT_ID      = 1996-051B
CENTER_NAME    = EARTH
REF_FRAME      = TEME
TIME_SYSTEM    = UTC
MEAN_ELEMENT_THEORY = SGP/SGP4

EPOCH          = 2026-01-31T21:56:00.160800
MEAN_MOTION    = 14.12405022
ECCENTRICITY   = .00180971
INCLINATION    = 70.7567
RA_OF_ASC_NODE = 253.0815
ARG_OF_PERICENTER = 198.9143
MEAN_ANOMALY   = 161.1306

EPHEMERIS_TYPE = 0
CLASSIFICATION_TYPE = U
NORAD_CAT_ID   = 24298
ELEMENT_SET_NO = 999
REV_AT_EPOCH   = 51645
BSTAR          = .63446962E-4
MEAN_MOTION_DOT = .68E-6
MEAN_MOTION_DDOT = 0

CCSDS_OMM_VERS = 2.0
CREATION_DATE  = 
ORIGINATOR     = 

OBJECT_NAME    = ORBVIEW 2 (SEASTAR)
OBJECT_ID      = 1997-037A
CENTER_NAME    = EARTH
REF_FRAME      = TEME
TIME_SYSTEM    = UTC
MEAN_ELEMENT_THEORY = SGP/SGP4

EPOCH          = 2026-01-31T21:26:49.249248
MEAN_MOTION    = 14.35464528
ECCENTRICITY   = .00026415
INCLINATION    = 98.8504
RA_OF_ASC_NODE = 195.2438
ARG_OF_PERICENTER = 148.1915
MEAN_ANOMALY   = 211.9430

EPHEMERIS_TYPE = 0
CLASSIFICATION_TYPE = U
NORAD_CAT_ID   = 24883
ELEMENT_SET_NO = 999
REV_AT_EPOCH   = 50319
BSTAR          = .13238171E-3
MEAN_MOTION_DOT = .334E-5
MEAN_MOTION_DDOT = 0

